<?xml version="1.0" encoding="UTF-8"?>
<kml xmlns="http://www.opengis.net/kml/2.2" xmlns:gx="http://www.google.com/kml/ext/2.2">
<Document>
    <name>FlightAware ✈ N9758H 30-Aug-2026 (N51-N51)</name>
    <Placemark>
        <name>N51 Airport</name>
        <description><![CDATA[Solberg/Hunterdon <br> Readington, NJ<br><br><a href='http://www.flightaware.com/live/airport/N51'>N51 airport activity (live)</a><br><a href='http://www.flightaware.com/resources/airport/N51'>N51 airport information</a>]]></description>
        <Point>
            <coordinates>-74.736706699999999,40.582787199999999,0</coordinates>
        </Point>
    </Placemark>
    <Placemark>
        <name>N51 Airport</name>
        <description><![CDATA[Solberg/Hunterdon <br> Readington, NJ<br><br><a href='http://www.flightaware.com/live/airport/N51'>N51 airport activity (live)</a><br><a href='http://www.flightaware.com/resources/airport/N51'>N51 airport information</a>]]></description>
        <Point>
            <coordinates>-74.736706699999999,40.582787199999999,0</coordinates>
        </Point>
    </Placemark>
    <Placemark>
        <name>N9758H</name>
        <description>N51 - N51</description>
        <gx:Track>
            <extrude>1</extrude>
            <tessellate>1</tessellate>
            <altitudeMode>absolute</altitudeMode>
            <when>2026-08-30T04:21:36Z</when>
            <when>2026-08-30T04:21:52Z</when>
            <when>2026-08-30T04:22:08Z</when>
            <when>2026-08-30T04:22:24Z</when>
            <when>2026-08-30T04:22:40Z</when>
            <when>2026-08-30T04:22:56Z</when>
            <when>2026-08-30T04:23:12Z</when>
            <when>2026-08-30T04:23:28Z</when>
            <when>2026-08-30T04:23:44Z</when>
            <when>2026-08-30T04:24:00Z</when>
            <when>2026-08-30T04:24:17Z</when>
            <when>2026-08-30T04:24:33Z</when>
            <when>2026-08-30T04:24:49Z</when>
            <when>2026-08-30T04:25:05Z</when>
            <when>2026-08-30T04:25:21Z</when>
            <when>2026-08-30T04:25:37Z</when>
            <when>2026-08-30T04:25:53Z</when>
            <when>2026-08-30T04:26:09Z</when>
            <when>2026-08-30T04:26:25Z</when>
            <when>2026-08-30T04:26:41Z</when>
            <when>2026-08-30T04:26:57Z</when>
            <when>2026-08-30T04:27:13Z</when>
            <when>2026-08-30T04:27:29Z</when>
            <when>2026-08-30T04:27:45Z</when>
            <when>2026-08-30T04:28:01Z</when>
            <when>2026-08-30T04:28:17Z</when>
            <when>2026-08-30T04:28:33Z</when>
            <when>2026-08-30T04:28:49Z</when>
            <when>2026-08-30T04:29:06Z</when>
            <when>2026-08-30T04:29:35Z</when>
            <when>2026-08-30T04:29:56Z</when>
            <when>2026-08-30T04:30:20Z</when>
            <when>2026-08-30T04:30:40Z</when>
            <when>2026-08-30T04:31:37Z</when>
            <when>2026-08-30T04:31:53Z</when>
            <when>2026-08-30T04:32:14Z</when>
            <when>2026-08-30T04:32:37Z</when>
            <when>2026-08-30T04:32:54Z</when>
            <when>2026-08-30T04:33:14Z</when>
            <when>2026-08-30T04:33:33Z</when>
            <when>2026-08-30T04:33:51Z</when>
            <when>2026-08-30T04:33:56Z</when>
            <when>2026-08-30T04:34:07Z</when>
            <when>2026-08-30T04:34:23Z</when>
            <when>2026-08-30T04:34:39Z</when>
            <when>2026-08-30T04:34:55Z</when>
            <when>2026-08-30T04:35:11Z</when>
            <when>2026-08-30T04:35:27Z</when>
            <when>2026-08-30T04:35:43Z</when>
            <when>2026-08-30T04:35:59Z</when>
            <when>2026-08-30T04:36:15Z</when>
            <when>2026-08-30T04:36:31Z</when>
            <when>2026-08-30T04:37:00Z</when>
            <when>2026-08-30T04:37:22Z</when>
            <when>2026-08-30T04:37:41Z</when>
            <when>2026-08-30T04:38:03Z</when>
            <when>2026-08-30T04:38:23Z</when>
            <when>2026-08-30T04:38:44Z</when>
            <when>2026-08-30T04:39:06Z</when>
            <when>2026-08-30T04:39:23Z</when>
            <when>2026-08-30T04:39:41Z</when>
            <when>2026-08-30T04:39:58Z</when>
            <when>2026-08-30T04:40:14Z</when>
            <when>2026-08-30T04:40:30Z</when>
            <when>2026-08-30T04:40:50Z</when>
            <when>2026-08-30T04:41:06Z</when>
            <when>2026-08-30T04:41:26Z</when>
            <when>2026-08-30T04:41:44Z</when>
            <when>2026-08-30T04:42:01Z</when>
            <when>2026-08-30T04:42:17Z</when>
            <when>2026-08-30T04:42:33Z</when>
            <when>2026-08-30T04:42:49Z</when>
            <when>2026-08-30T04:43:05Z</when>
            <when>2026-08-30T04:43:21Z</when>
            <when>2026-08-30T04:43:37Z</when>
            <when>2026-08-30T04:43:53Z</when>
            <when>2026-08-30T04:44:09Z</when>
            <when>2026-08-30T04:44:25Z</when>
            <when>2026-08-30T04:44:41Z</when>
            <when>2026-08-30T04:44:57Z</when>
            <when>2026-08-30T04:45:13Z</when>
            <when>2026-08-30T04:45:29Z</when>
            <when>2026-08-30T04:45:45Z</when>
            <when>2026-08-30T04:46:01Z</when>
            <when>2026-08-30T04:46:17Z</when>
            <when>2026-08-30T04:46:33Z</when>
            <when>2026-08-30T04:46:49Z</when>
            <when>2026-08-30T04:47:05Z</when>
            <when>2026-08-30T04:47:21Z</when>
            <when>2026-08-30T04:47:37Z</when>
            <when>2026-08-30T04:47:53Z</when>
            <when>2026-08-30T04:48:09Z</when>
            <when>2026-08-30T04:48:25Z</when>
            <when>2026-08-30T04:48:41Z</when>
            <when>2026-08-30T04:48:59Z</when>
            <when>2026-08-30T04:49:17Z</when>
            <when>2026-08-30T04:49:35Z</when>
            <when>2026-08-30T04:49:53Z</when>
            <when>2026-08-30T04:50:09Z</when>
            <when>2026-08-30T04:50:25Z</when>
            <when>2026-08-30T04:50:41Z</when>
            <when>2026-08-30T04:50:57Z</when>
            <when>2026-08-30T04:51:13Z</when>
            <when>2026-08-30T04:51:29Z</when>
            <when>2026-08-30T04:51:45Z</when>
            <when>2026-08-30T04:52:01Z</when>
            <when>2026-08-30T04:52:17Z</when>
            <when>2026-08-30T04:52:33Z</when>
            <when>2026-08-30T04:52:49Z</when>
            <when>2026-08-30T04:53:05Z</when>
            <when>2026-08-30T04:53:21Z</when>
            <when>2026-08-30T04:53:37Z</when>
            <when>2026-08-30T04:53:53Z</when>
            <when>2026-08-30T04:54:09Z</when>
            <when>2026-08-30T04:54:25Z</when>
            <when>2026-08-30T04:54:41Z</when>
            <when>2026-08-30T04:54:51Z</when>
            <when>2026-08-30T04:54:57Z</when>
            <when>2026-08-30T04:55:13Z</when>
            <when>2026-08-30T04:55:29Z</when>
            <when>2026-08-30T04:55:45Z</when>
            <when>2026-08-30T04:56:01Z</when>
            <when>2026-08-30T04:56:17Z</when>
            <when>2026-08-30T04:56:33Z</when>
            <when>2026-08-30T04:56:49Z</when>
            <when>2026-08-30T04:57:05Z</when>
            <when>2026-08-30T04:57:21Z</when>
            <when>2026-08-30T04:57:37Z</when>
            <when>2026-08-30T04:57:53Z</when>
            <when>2026-08-30T04:58:09Z</when>
            <when>2026-08-30T04:58:25Z</when>
            <when>2026-08-30T04:58:41Z</when>
            <when>2026-08-30T04:58:57Z</when>
            <when>2026-08-30T04:59:13Z</when>
            <when>2026-08-30T04:59:29Z</when>
            <when>2026-08-30T04:59:45Z</when>
            <when>2026-08-30T05:00:01Z</when>
            <when>2026-08-30T05:00:17Z</when>
            <when>2026-08-30T05:00:33Z</when>
            <when>2026-08-30T05:00:49Z</when>
            <when>2026-08-30T05:01:05Z</when>
            <when>2026-08-30T05:01:21Z</when>
            <when>2026-08-30T05:01:37Z</when>
            <when>2026-08-30T05:01:53Z</when>
            <when>2026-08-30T05:02:09Z</when>
            <when>2026-08-30T05:02:25Z</when>
            <when>2026-08-30T05:02:41Z</when>
            <when>2026-08-30T05:02:57Z</when>
            <when>2026-08-30T05:03:13Z</when>
            <when>2026-08-30T05:03:29Z</when>
            <when>2026-08-30T05:03:45Z</when>
            <when>2026-08-30T05:04:01Z</when>
            <when>2026-08-30T05:04:17Z</when>
            <when>2026-08-30T05:04:33Z</when>
            <when>2026-08-30T05:04:49Z</when>
            <when>2026-08-30T05:05:05Z</when>
            <when>2026-08-30T05:05:21Z</when>
            <when>2026-08-30T05:05:37Z</when>
            <when>2026-08-30T05:05:53Z</when>
            <when>2026-08-30T05:06:09Z</when>
            <when>2026-08-30T05:06:25Z</when>
            <when>2026-08-30T05:06:42Z</when>
            <when>2026-08-30T05:06:57Z</when>
            <when>2026-08-30T05:07:13Z</when>
            <when>2026-08-30T05:07:29Z</when>
            <when>2026-08-30T05:07:45Z</when>
            <when>2026-08-30T05:08:01Z</when>
            <when>2026-08-30T05:08:17Z</when>
            <when>2026-08-30T05:08:33Z</when>
            <when>2026-08-30T05:08:49Z</when>
            <when>2026-08-30T05:09:05Z</when>
            <when>2026-08-30T05:09:21Z</when>
            <when>2026-08-30T05:09:37Z</when>
            <when>2026-08-30T05:09:53Z</when>
            <when>2026-08-30T05:10:09Z</when>
            <when>2026-08-30T05:10:25Z</when>
            <when>2026-08-30T05:10:41Z</when>
            <when>2026-08-30T05:10:57Z</when>
            <when>2026-08-30T05:11:13Z</when>
            <when>2026-08-30T05:11:29Z</when>
            <when>2026-08-30T05:11:45Z</when>
            <when>2026-08-30T05:12:01Z</when>
            <when>2026-08-30T05:12:17Z</when>
            <when>2026-08-30T05:12:33Z</when>
            <gx:coord>-74.73871 40.57530 46</gx:coord>
            <gx:coord>-74.74048 40.57072 122</gx:coord>
            <gx:coord>-74.74152 40.56610 190</gx:coord>
            <gx:coord>-74.74074 40.56152 259</gx:coord>
            <gx:coord>-74.73425 40.55827 305</gx:coord>
            <gx:coord>-74.72729 40.56070 343</gx:coord>
            <gx:coord>-74.72168 40.56596 343</gx:coord>
            <gx:coord>-74.71411 40.57045 335</gx:coord>
            <gx:coord>-74.70428 40.57127 320</gx:coord>
            <gx:coord>-74.69403 40.57155 320</gx:coord>
            <gx:coord>-74.68304 40.57159 305</gx:coord>
            <gx:coord>-74.67339 40.57135 305</gx:coord>
            <gx:coord>-74.66352 40.57116 297</gx:coord>
            <gx:coord>-74.65259 40.57123 282</gx:coord>
            <gx:coord>-74.64288 40.57127 274</gx:coord>
            <gx:coord>-74.63194 40.57125 274</gx:coord>
            <gx:coord>-74.62133 40.57176 267</gx:coord>
            <gx:coord>-74.61017 40.57242 267</gx:coord>
            <gx:coord>-74.59998 40.57274 251</gx:coord>
            <gx:coord>-74.58917 40.57397 244</gx:coord>
            <gx:coord>-74.57892 40.57365 244</gx:coord>
            <gx:coord>-74.56793 40.57320 236</gx:coord>
            <gx:coord>-74.55747 40.57270 236</gx:coord>
            <gx:coord>-74.54773 40.57228 229</gx:coord>
            <gx:coord>-74.53674 40.57223 221</gx:coord>
            <gx:coord>-74.52725 40.57251 221</gx:coord>
            <gx:coord>-74.51752 40.57367 244</gx:coord>
            <gx:coord>-74.50891 40.57516 259</gx:coord>
            <gx:coord>-74.49841 40.57549 259</gx:coord>
            <gx:coord>-74.47919 40.57419 259</gx:coord>
            <gx:coord>-74.46454 40.57274 259</gx:coord>
            <gx:coord>-74.44854 40.57083 259</gx:coord>
            <gx:coord>-74.43555 40.56825 259</gx:coord>
            <gx:coord>-74.39891 40.55910 259</gx:coord>
            <gx:coord>-74.38824 40.55775 259</gx:coord>
            <gx:coord>-74.37390 40.55850 259</gx:coord>
            <gx:coord>-74.35871 40.56059 259</gx:coord>
            <gx:coord>-74.34667 40.56166 259</gx:coord>
            <gx:coord>-74.33219 40.56213 259</gx:coord>
            <gx:coord>-74.32001 40.56180 259</gx:coord>
            <gx:coord>-74.30768 40.56102 251</gx:coord>
            <gx:coord>-74.30377 40.56093 251</gx:coord>
            <gx:coord>-74.29698 40.56115 259</gx:coord>
            <gx:coord>-74.28568 40.56083 251</gx:coord>
            <gx:coord>-74.27345 40.56022 251</gx:coord>
            <gx:coord>-74.26367 40.56042 267</gx:coord>
            <gx:coord>-74.25256 40.56024 259</gx:coord>
            <gx:coord>-74.24194 40.56102 259</gx:coord>
            <gx:coord>-74.23000 40.56008 267</gx:coord>
            <gx:coord>-74.21876 40.55915 259</gx:coord>
            <gx:coord>-74.20801 40.55814 259</gx:coord>
            <gx:coord>-74.19666 40.55731 259</gx:coord>
            <gx:coord>-74.17725 40.55699 259</gx:coord>
            <gx:coord>-74.16174 40.55676 259</gx:coord>
            <gx:coord>-74.14760 40.55668 251</gx:coord>
            <gx:coord>-74.13336 40.55603 251</gx:coord>
            <gx:coord>-74.12039 40.55421 251</gx:coord>
            <gx:coord>-74.10565 40.55598 236</gx:coord>
            <gx:coord>-74.09067 40.55957 221</gx:coord>
            <gx:coord>-74.07959 40.56331 198</gx:coord>
            <gx:coord>-74.06920 40.56902 190</gx:coord>
            <gx:coord>-74.05939 40.57581 198</gx:coord>
            <gx:coord>-74.05228 40.58257 198</gx:coord>
            <gx:coord>-74.04797 40.58904 198</gx:coord>
            <gx:coord>-74.04382 40.59883 198</gx:coord>
            <gx:coord>-74.04267 40.60677 198</gx:coord>
            <gx:coord>-74.04479 40.61636 198</gx:coord>
            <gx:coord>-74.04547 40.62625 198</gx:coord>
            <gx:coord>-74.04480 40.63472 198</gx:coord>
            <gx:coord>-74.04392 40.64220 198</gx:coord>
            <gx:coord>-74.04242 40.65053 198</gx:coord>
            <gx:coord>-74.04074 40.65807 198</gx:coord>
            <gx:coord>-74.03943 40.66644 198</gx:coord>
            <gx:coord>-74.03843 40.67376 198</gx:coord>
            <gx:coord>-74.03674 40.68144 198</gx:coord>
            <gx:coord>-74.03674 40.68973 190</gx:coord>
            <gx:coord>-74.04211 40.69432 198</gx:coord>
            <gx:coord>-74.04987 40.69070 190</gx:coord>
            <gx:coord>-74.04816 40.68471 198</gx:coord>
            <gx:coord>-74.03906 40.68741 190</gx:coord>
            <gx:coord>-74.03936 40.69364 198</gx:coord>
            <gx:coord>-74.04766 40.69382 190</gx:coord>
            <gx:coord>-74.05042 40.68832 198</gx:coord>
            <gx:coord>-74.04285 40.68480 198</gx:coord>
            <gx:coord>-74.03793 40.69038 198</gx:coord>
            <gx:coord>-74.04585 40.69257 190</gx:coord>
            <gx:coord>-74.05060 40.68851 198</gx:coord>
            <gx:coord>-74.05047 40.68242 198</gx:coord>
            <gx:coord>-74.04999 40.67587 206</gx:coord>
            <gx:coord>-74.04932 40.66896 198</gx:coord>
            <gx:coord>-74.04993 40.66150 190</gx:coord>
            <gx:coord>-74.05116 40.65365 190</gx:coord>
            <gx:coord>-74.05153 40.64592 198</gx:coord>
            <gx:coord>-74.05104 40.63819 198</gx:coord>
            <gx:coord>-74.05280 40.62946 198</gx:coord>
            <gx:coord>-74.05219 40.62099 198</gx:coord>
            <gx:coord>-74.05128 40.61189 198</gx:coord>
            <gx:coord>-74.04848 40.60314 198</gx:coord>
            <gx:coord>-74.05060 40.59618 198</gx:coord>
            <gx:coord>-74.05547 40.58899 198</gx:coord>
            <gx:coord>-74.06034 40.58336 198</gx:coord>
            <gx:coord>-74.06708 40.57823 190</gx:coord>
            <gx:coord>-74.07501 40.57367 198</gx:coord>
            <gx:coord>-74.08175 40.56995 198</gx:coord>
            <gx:coord>-74.08978 40.56587 198</gx:coord>
            <gx:coord>-74.09930 40.56358 198</gx:coord>
            <gx:coord>-74.10724 40.56198 221</gx:coord>
            <gx:coord>-74.11570 40.55999 244</gx:coord>
            <gx:coord>-74.12299 40.55869 259</gx:coord>
            <gx:coord>-74.13208 40.55763 259</gx:coord>
            <gx:coord>-74.14172 40.55685 259</gx:coord>
            <gx:coord>-74.15027 40.55635 259</gx:coord>
            <gx:coord>-74.16028 40.55598 259</gx:coord>
            <gx:coord>-74.16962 40.55594 259</gx:coord>
            <gx:coord>-74.17894 40.55612 259</gx:coord>
            <gx:coord>-74.18755 40.55631 251</gx:coord>
            <gx:coord>-74.19330 40.55663 259</gx:coord>
            <gx:coord>-74.19710 40.55678 259</gx:coord>
            <gx:coord>-74.20603 40.55705 259</gx:coord>
            <gx:coord>-74.21606 40.55704 259</gx:coord>
            <gx:coord>-74.22504 40.55731 259</gx:coord>
            <gx:coord>-74.23437 40.55761 259</gx:coord>
            <gx:coord>-74.24365 40.55823 259</gx:coord>
            <gx:coord>-74.25372 40.55868 259</gx:coord>
            <gx:coord>-74.26221 40.55901 259</gx:coord>
            <gx:coord>-74.27139 40.55934 259</gx:coord>
            <gx:coord>-74.28119 40.55997 259</gx:coord>
            <gx:coord>-74.29011 40.56101 259</gx:coord>
            <gx:coord>-74.29979 40.56166 259</gx:coord>
            <gx:coord>-74.30872 40.56189 259</gx:coord>
            <gx:coord>-74.31777 40.56227 259</gx:coord>
            <gx:coord>-74.32700 40.56255 259</gx:coord>
            <gx:coord>-74.33662 40.56283 259</gx:coord>
            <gx:coord>-74.34598 40.56339 259</gx:coord>
            <gx:coord>-74.35491 40.56399 259</gx:coord>
            <gx:coord>-74.36440 40.56464 259</gx:coord>
            <gx:coord>-74.37305 40.56505 259</gx:coord>
            <gx:coord>-74.38190 40.56528 259</gx:coord>
            <gx:coord>-74.39174 40.56567 259</gx:coord>
            <gx:coord>-74.40015 40.56606 259</gx:coord>
            <gx:coord>-74.40971 40.56655 259</gx:coord>
            <gx:coord>-74.41914 40.56730 259</gx:coord>
            <gx:coord>-74.42850 40.56827 259</gx:coord>
            <gx:coord>-74.43774 40.56885 259</gx:coord>
            <gx:coord>-74.44659 40.56931 259</gx:coord>
            <gx:coord>-74.45659 40.56934 259</gx:coord>
            <gx:coord>-74.46582 40.56976 259</gx:coord>
            <gx:coord>-74.47546 40.57036 259</gx:coord>
            <gx:coord>-74.48468 40.57083 259</gx:coord>
            <gx:coord>-74.49330 40.57135 259</gx:coord>
            <gx:coord>-74.50328 40.57195 259</gx:coord>
            <gx:coord>-74.51233 40.57233 259</gx:coord>
            <gx:coord>-74.52209 40.57297 259</gx:coord>
            <gx:coord>-74.53052 40.57338 259</gx:coord>
            <gx:coord>-74.53937 40.57320 259</gx:coord>
            <gx:coord>-74.54901 40.57297 259</gx:coord>
            <gx:coord>-74.55743 40.57329 251</gx:coord>
            <gx:coord>-74.56589 40.57395 244</gx:coord>
            <gx:coord>-74.57445 40.57460 244</gx:coord>
            <gx:coord>-74.58287 40.57521 244</gx:coord>
            <gx:coord>-74.59230 40.57614 244</gx:coord>
            <gx:coord>-74.60016 40.57681 244</gx:coord>
            <gx:coord>-74.60815 40.57745 244</gx:coord>
            <gx:coord>-74.61614 40.57786 251</gx:coord>
            <gx:coord>-74.62401 40.57833 251</gx:coord>
            <gx:coord>-74.63147 40.57869 267</gx:coord>
            <gx:coord>-74.63782 40.57938 274</gx:coord>
            <gx:coord>-74.64505 40.58033 282</gx:coord>
            <gx:coord>-74.65279 40.58154 274</gx:coord>
            <gx:coord>-74.65978 40.58415 274</gx:coord>
            <gx:coord>-74.66638 40.58789 274</gx:coord>
            <gx:coord>-74.67230 40.59265 274</gx:coord>
            <gx:coord>-74.67869 40.59746 274</gx:coord>
            <gx:coord>-74.68414 40.60144 282</gx:coord>
            <gx:coord>-74.69019 40.60561 274</gx:coord>
            <gx:coord>-74.69536 40.60877 274</gx:coord>
            <gx:coord>-74.70041 40.61133 267</gx:coord>
            <gx:coord>-74.70599 40.61188 251</gx:coord>
            <gx:coord>-74.71046 40.61068 206</gx:coord>
            <gx:coord>-74.71484 40.60753 145</gx:coord>
            <gx:coord>-74.71796 40.60405 99</gx:coord>
            <gx:coord>-74.72107 40.60025 69</gx:coord>
            <gx:coord>-74.72394 40.59650 46</gx:coord>
            <gx:coord>-74.72717 40.59229 23</gx:coord>
        </gx:Track>
    </Placemark>
    <ScreenOverlay>
        <name>FlightAware</name>
        <Icon>
            <href>https://www.flightaware.com/images/logo_ge.png</href>
        </Icon>
        <overlayXY x="1" y="-1" xunits="fraction" yunits="fraction"/>
        <screenXY x="1" y="0" xunits="fraction" yunits="fraction"/>
        <size x="0" y="0" xunits="fraction" yunits="fraction"/>
    </ScreenOverlay>
</Document>

</kml>
